[{"OBJECT_NAME":"STARLINK-4436","OBJECT_ID":"2022-099Q","EPOCH":"2026-03-09T21:38:57.471648","MEAN_MOTION":15.05652424,"ECCENTRICITY":6.437e-5,"INCLINATION":97.6029,"RA_OF_ASC_NODE":191.5003,"ARG_OF_PERICENTER":290.9391,"MEAN_ANOMALY":69.1767,"EPHEMERIS_TYPE":0,"CLASSIFICATION_TYPE":"U","NORAD_CAT_ID":53479,"ELEMENT_SET_NO":999,"REV_AT_EPOCH":19608,"BSTAR":6.4351145e-5,"MEAN_MOTION_DOT":8.68e-6,"MEAN_MOTION_DDOT":0},{"OBJECT_NAME":"UNKNOWN","OBJECT_ID":"","EPOCH":"2026-03-08T16:53:53.910816","MEAN_MOTION":15.05228096,"ECCENTRICITY":0.0007208,"INCLINATION":85.8751,"RA_OF_ASC_NODE":153.385,"ARG_OF_PERICENTER":323.4201,"MEAN_ANOMALY":36.654,"EPHEMERIS_TYPE":0,"CLASSIFICATION_TYPE":"U","NORAD_CAT_ID":81343,"ELEMENT_SET_NO":999,"REV_AT_EPOCH":46724,"BSTAR":0.00071714,"MEAN_MOTION_DOT":0.00010274,"MEAN_MOTION_DDOT":0}]
